[{"OBJECT_NAME":"STARLINK-31159","OBJECT_ID":"2024-005N","EPOCH":"2026-03-09T11:08:29.016672","MEAN_MOTION":15.26737472,"ECCENTRICITY":9.226e-5,"INCLINATION":42.9962,"RA_OF_ASC_NODE":220.6332,"ARG_OF_PERICENTER":252.9268,"MEAN_ANOMALY":107.1482,"EPHEMERIS_TYPE":0,"CLASSIFICATION_TYPE":"U","NORAD_CAT_ID":58740,"ELEMENT_SET_NO":999,"REV_AT_EPOCH":12050,"BSTAR":-2.161951e-6,"MEAN_MOTION_DOT":-3.17e-6,"MEAN_MOTION_DDOT":0},{"OBJECT_NAME":"FLOCK 4G-12","OBJECT_ID":"2025-009S","EPOCH":"2026-03-09T17:16:21.445824","MEAN_MOTION":15.27059194,"ECCENTRICITY":0.00028933,"INCLINATION":97.4059,"RA_OF_ASC_NODE":151.1894,"ARG_OF_PERICENTER":310.1775,"MEAN_ANOMALY":49.9211,"EPHEMERIS_TYPE":0,"CLASSIFICATION_TYPE":"U","NORAD_CAT_ID":62625,"ELEMENT_SET_NO":999,"REV_AT_EPOCH":6371,"BSTAR":0.00043519262,"MEAN_MOTION_DOT":0.00011487,"MEAN_MOTION_DDOT":0}]
